[{"OBJECT_NAME":"THEA","OBJECT_ID":"2018-099AQ","EPOCH":"2026-03-09T22:33:02.658240","MEAN_MOTION":15.31454284,"ECCENTRICITY":0.00065849,"INCLINATION":97.4542,"RA_OF_ASC_NODE":137.8815,"ARG_OF_PERICENTER":275.4664,"MEAN_ANOMALY":84.5826,"EPHEMERIS_TYPE":0,"CLASSIFICATION_TYPE":"U","NORAD_CAT_ID":43796,"ELEMENT_SET_NO":999,"REV_AT_EPOCH":39748,"BSTAR":0.00074635274,"MEAN_MOTION_DOT":0.00022649,"MEAN_MOTION_DDOT":0},{"OBJECT_NAME":"STARLINK-35356","OBJECT_ID":"2025-221P","EPOCH":"2026-03-09T08:22:21.093600","MEAN_MOTION":15.30201389,"ECCENTRICITY":0.00012478,"INCLINATION":53.1576,"RA_OF_ASC_NODE":89.7528,"ARG_OF_PERICENTER":83.8441,"MEAN_ANOMALY":276.2702,"EPHEMERIS_TYPE":0,"CLASSIFICATION_TYPE":"U","NORAD_CAT_ID":65836,"ELEMENT_SET_NO":999,"REV_AT_EPOCH":2468,"BSTAR":0.00047241541,"MEAN_MOTION_DOT":0.00013659,"MEAN_MOTION_DDOT":0}]
